{"type":"FeatureCollection","features":[
{"type":"Feature","properties":{"ADM1_FR":"Kinshasa","ADM1_EN":"Kinshasa"},"geometry":{"type":"Polygon","coordinates":[[[15.187,-4.458],[15.460,-4.317],[15.523,-4.432],[15.461,-4.628],[15.303,-4.749],[15.195,-4.666],[15.112,-4.530],[15.187,-4.458]]]}},
{"type":"Feature","properties":{"ADM1_FR":"Kongo-Central","ADM1_EN":"Kongo-Central"},"geometry":{"type":"Polygon","coordinates":[[[12.205,-4.778],[13.058,-4.632],[13.456,-4.836],[13.844,-5.076],[14.252,-5.570],[14.518,-5.901],[14.611,-6.237],[14.322,-6.452],[13.896,-6.705],[13.456,-6.912],[12.968,-6.944],[12.607,-6.822],[12.241,-6.530],[11.985,-6.062],[11.832,-5.622],[11.832,-5.176],[12.205,-4.778]]]}},
{"type":"Feature","properties":{"ADM1_FR":"Kwango","ADM1_EN":"Kwango"},"geometry":{"type":"Polygon","coordinates":[[[16.231,-4.834],[16.946,-4.693],[17.580,-4.842],[18.090,-5.151],[18.366,-5.653],[18.299,-6.228],[17.862,-6.730],[17.246,-7.073],[16.583,-7.219],[15.928,-7.025],[15.484,-6.627],[15.253,-6.130],[15.341,-5.594],[15.726,-5.180],[16.231,-4.834]]]}},
{"type":"Feature","properties":{"ADM1_FR":"Kwilu","ADM1_EN":"Kwilu"},"geometry":{"type":"Polygon","coordinates":[[[16.820,-3.280],[17.539,-3.290],[18.211,-3.521],[18.713,-3.983],[18.832,-4.580],[18.599,-5.146],[18.090,-5.495],[17.478,-5.629],[16.893,-5.481],[16.396,-5.096],[16.197,-4.548],[16.280,-3.972],[16.560,-3.558],[16.820,-3.280]]]}},
{"type":"Feature","properties":{"ADM1_FR":"Mai-Ndombe","ADM1_EN":"Mai-Ndombe"},"geometry":{"type":"Polygon","coordinates":[[[16.820,-3.280],[17.539,-3.290],[18.211,-3.521],[18.713,-3.040],[19.152,-2.621],[19.388,-2.100],[19.253,-1.579],[18.899,-1.180],[18.538,-0.986],[18.073,-0.993],[17.601,-1.135],[17.173,-1.477],[16.802,-1.937],[16.552,-2.466],[16.418,-3.038],[16.820,-3.280]]]}},
{"type":"Feature","properties":{"ADM1_FR":"Equateur","ADM1_EN":"Equateur"},"geometry":{"type":"Polygon","coordinates":[[[18.073,-0.993],[18.538,-0.986],[18.899,-1.180],[19.253,-1.579],[19.388,-2.100],[19.900,-1.810],[20.405,-1.638],[20.921,-1.771],[21.395,-2.069],[21.734,-2.447],[21.813,-3.008],[21.504,-3.481],[21.016,-3.754],[20.465,-3.852],[19.896,-3.741],[19.373,-3.539],[18.832,-3.150],[18.367,-2.699],[17.988,-2.255],[17.601,-1.477],[17.601,-1.135],[18.073,-0.993]]]}},
{"type":"Feature","properties":{"ADM1_FR":"Tshuapa","ADM1_EN":"Tshuapa"},"geometry":{"type":"Polygon","coordinates":[[[20.465,-3.852],[21.016,-3.754],[21.504,-3.481],[21.813,-3.008],[22.192,-2.740],[22.648,-2.571],[23.124,-2.671],[23.572,-2.936],[23.870,-3.372],[23.870,-3.970],[23.572,-4.453],[23.018,-4.726],[22.419,-4.733],[21.828,-4.541],[21.313,-4.242],[20.855,-3.960],[20.465,-3.852]]]}},
{"type":"Feature","properties":{"ADM1_FR":"Sankuru","ADM1_EN":"Sankuru"},"geometry":{"type":"Polygon","coordinates":[[[22.419,-4.733],[23.018,-4.726],[23.572,-4.453],[23.870,-3.970],[24.284,-4.205],[24.655,-4.539],[24.850,-5.013],[24.720,-5.544],[24.336,-5.948],[23.804,-6.162],[23.234,-6.121],[22.716,-5.861],[22.326,-5.447],[22.090,-4.960],[22.163,-4.418],[22.419,-4.733]]]}},
{"type":"Feature","properties":{"ADM1_FR":"Kasai","ADM1_EN":"Kasai"},"geometry":{"type":"Polygon","coordinates":[[[18.366,-5.653],[18.832,-5.653],[19.373,-5.630],[19.900,-5.700],[20.310,-5.978],[20.509,-6.459],[20.413,-6.960],[19.975,-7.266],[19.430,-7.360],[18.904,-7.220],[18.435,-6.930],[18.148,-6.510],[17.993,-6.010],[18.099,-5.530],[18.366,-5.653]]]}},
{"type":"Feature","properties":{"ADM1_FR":"Kasai-Central","ADM1_EN":"Kasai-Central"},"geometry":{"type":"Polygon","coordinates":[[[19.900,-5.700],[20.310,-5.978],[20.509,-6.459],[20.413,-6.960],[20.853,-7.180],[21.270,-7.035],[21.617,-6.760],[21.820,-6.380],[21.756,-5.880],[21.388,-5.530],[20.973,-5.360],[20.540,-5.350],[20.107,-5.490],[19.900,-5.700]]]}},
{"type":"Feature","properties":{"ADM1_FR":"Kasai-Oriental","ADM1_EN":"Kasai-Oriental"},"geometry":{"type":"Polygon","coordinates":[[[22.716,-5.861],[23.234,-6.121],[23.804,-6.162],[24.280,-6.050],[24.654,-6.370],[24.840,-6.870],[24.692,-7.370],[24.235,-7.630],[23.706,-7.680],[23.195,-7.530],[22.727,-7.290],[22.346,-6.930],[22.163,-6.420],[22.208,-5.910],[22.419,-5.540],[22.716,-5.861]]]}},
{"type":"Feature","properties":{"ADM1_FR":"Lomami","ADM1_EN":"Lomami"},"geometry":{"type":"Polygon","coordinates":[[[23.195,-7.530],[23.706,-7.680],[24.235,-7.630],[24.692,-7.370],[25.095,-7.550],[25.350,-8.000],[25.295,-8.530],[24.942,-8.910],[24.430,-9.060],[23.889,-8.980],[23.400,-8.750],[22.993,-8.370],[22.770,-7.900],[22.827,-7.410],[23.195,-7.530]]]}},
{"type":"Feature","properties":{"ADM1_FR":"Lualaba","ADM1_EN":"Lualaba"},"geometry":{"type":"Polygon","coordinates":[[[22.208,-8.210],[22.770,-7.900],[22.993,-8.370],[23.400,-8.750],[23.889,-8.980],[24.430,-9.060],[24.430,-9.600],[24.117,-10.080],[23.673,-10.350],[23.120,-10.450],[22.570,-10.340],[22.120,-9.980],[21.844,-9.490],[21.770,-8.950],[22.011,-8.510],[22.208,-8.210]]]}},
{"type":"Feature","properties":{"ADM1_FR":"Haut-Lomami","ADM1_EN":"Haut-Lomami"},"geometry":{"type":"Polygon","coordinates":[[[24.430,-9.060],[24.942,-8.910],[25.295,-8.530],[25.715,-8.220],[26.170,-8.250],[26.530,-8.560],[26.630,-9.090],[26.420,-9.610],[25.960,-9.950],[25.430,-10.100],[24.920,-9.990],[24.430,-9.600],[24.430,-9.060]]]}},
{"type":"Feature","properties":{"ADM1_FR":"Haut-Katanga","ADM1_EN":"Haut-Katanga"},"geometry":{"type":"Polygon","coordinates":[[[25.430,-10.100],[25.960,-9.950],[26.420,-9.610],[26.630,-9.090],[27.040,-9.060],[27.450,-9.310],[27.770,-9.700],[27.900,-10.240],[27.700,-10.800],[27.260,-11.200],[26.730,-11.430],[26.160,-11.490],[25.620,-11.340],[25.180,-10.970],[24.950,-10.490],[25.190,-10.040],[25.430,-10.100]]]}},
{"type":"Feature","properties":{"ADM1_FR":"Tanganyika","ADM1_EN":"Tanganyika"},"geometry":{"type":"Polygon","coordinates":[[[26.170,-8.250],[26.630,-8.000],[27.200,-7.820],[27.750,-7.940],[28.260,-8.130],[28.630,-8.560],[28.720,-9.100],[28.430,-9.610],[27.900,-9.970],[27.450,-9.310],[27.040,-9.060],[26.630,-9.090],[26.530,-8.560],[26.170,-8.250]]]}},
{"type":"Feature","properties":{"ADM1_FR":"Maniema","ADM1_EN":"Maniema"},"geometry":{"type":"Polygon","coordinates":[[[25.350,-2.500],[25.880,-2.640],[26.380,-2.880],[26.830,-3.200],[27.150,-3.630],[27.250,-4.200],[27.050,-4.720],[26.580,-5.100],[26.030,-5.280],[25.480,-5.230],[25.010,-4.990],[24.680,-4.630],[24.580,-4.090],[24.760,-3.560],[25.110,-3.070],[25.350,-2.500]]]}},
{"type":"Feature","properties":{"ADM1_FR":"Sud-Kivu","ADM1_EN":"Sud-Kivu"},"geometry":{"type":"Polygon","coordinates":[[[26.830,-1.640],[27.310,-1.930],[27.820,-2.240],[28.280,-2.590],[28.680,-3.010],[28.860,-3.490],[28.800,-4.020],[28.470,-4.460],[27.990,-4.740],[27.480,-4.840],[27.020,-4.700],[26.580,-4.390],[26.250,-3.940],[26.130,-3.380],[26.290,-2.820],[26.620,-2.300],[26.830,-1.640]]]}},
{"type":"Feature","properties":{"ADM1_FR":"Nord-Kivu","ADM1_EN":"Nord-Kivu"},"geometry":{"type":"Polygon","coordinates":[[[27.070,0.400],[27.580,0.200],[28.090,-0.100],[28.550,-0.500],[29.010,-0.870],[29.360,-1.290],[29.550,-1.780],[29.480,-2.280],[29.100,-2.620],[28.600,-2.790],[28.130,-2.700],[27.680,-2.470],[27.310,-2.080],[27.050,-1.580],[26.960,-1.070],[26.980,-0.510],[27.070,0.400]]]}},
{"type":"Feature","properties":{"ADM1_FR":"Ituri","ADM1_EN":"Ituri"},"geometry":{"type":"Polygon","coordinates":[[[27.070,0.400],[27.430,0.820],[27.720,1.310],[28.110,1.720],[28.620,2.060],[29.100,2.280],[29.520,2.380],[30.000,2.290],[30.430,2.060],[30.720,1.680],[30.800,1.170],[30.620,0.680],[30.230,0.330],[29.780,0.100],[29.290,0.050],[28.800,0.180],[28.310,0.400],[27.820,0.400],[27.070,0.400]]]}},
{"type":"Feature","properties":{"ADM1_FR":"Haut-Uele","ADM1_EN":"Haut-Uele"},"geometry":{"type":"Polygon","coordinates":[[[27.070,0.400],[27.310,1.040],[27.350,1.450],[27.170,1.830],[26.940,2.170],[26.620,2.440],[26.230,2.640],[25.780,2.760],[25.290,2.800],[24.790,2.740],[24.300,2.580],[23.870,2.310],[23.510,1.940],[23.260,1.490],[23.170,0.980],[23.230,0.470],[23.420,0.000],[23.730,-0.370],[24.170,-0.640],[24.660,-0.760],[25.160,-0.690],[25.630,-0.440],[25.990,-0.030],[26.120,0.490],[26.040,1.020],[25.870,1.560],[25.630,2.060],[25.270,2.530],[24.820,2.940],[24.290,3.280],[23.700,3.530],[23.100,3.700],[22.500,3.800],[23.100,3.700],[23.700,3.530],[24.290,3.280],[24.820,2.940],[25.270,2.530],[25.630,2.060],[26.040,1.020],[26.120,0.490],[25.990,-0.030],[25.630,-0.440],[25.160,-0.690],[24.660,-0.760],[24.170,-0.640],[23.730,-0.370],[23.420,0.000],[23.170,0.980],[23.260,1.490],[23.510,1.940],[23.870,2.310],[24.300,2.580],[24.790,2.740],[25.290,2.800],[25.780,2.760],[26.230,2.640],[26.620,2.440],[26.940,2.170],[27.170,1.830],[27.350,1.450],[27.310,1.040],[27.070,0.400]]]}},
{"type":"Feature","properties":{"ADM1_FR":"Bas-Uele","ADM1_EN":"Bas-Uele"},"geometry":{"type":"Polygon","coordinates":[[[18.600,4.200],[19.200,4.100],[19.800,3.920],[20.380,3.660],[20.900,3.310],[21.340,2.900],[21.680,2.430],[21.910,1.920],[22.020,1.380],[21.980,0.840],[21.790,0.330],[21.460,-0.130],[21.016,-0.500],[20.465,-0.700],[19.900,-0.800],[19.388,-0.700],[19.152,-0.400],[18.900,-0.200],[18.538,-0.300],[18.073,-0.500],[17.601,-0.500],[17.173,-0.200],[16.960,0.200],[17.000,0.700],[17.200,1.200],[17.550,1.650],[18.000,2.050],[18.500,2.380],[19.020,2.610],[19.560,2.720],[20.100,2.730],[20.640,2.620],[21.150,2.400],[21.600,2.090],[21.980,1.700],[22.260,1.270],[22.430,0.800],[22.470,0.320],[22.380,-0.150],[22.160,-0.590],[21.820,-0.970],[21.370,-1.270],[20.840,-1.440],[20.300,-1.490],[19.780,-1.420],[19.300,-1.230],[18.900,-0.900],[18.600,4.200]]]}},
{"type":"Feature","properties":{"ADM1_FR":"Mongala","ADM1_EN":"Mongala"},"geometry":{"type":"Polygon","coordinates":[[[19.388,-2.100],[19.900,-1.810],[20.405,-1.638],[20.921,-1.771],[21.395,-2.069],[21.734,-2.447],[21.813,-3.008],[21.504,-3.481],[21.016,-3.754],[20.465,-3.852],[19.900,-3.741],[19.373,-3.539],[18.832,-3.150],[18.367,-2.699],[17.988,-2.255],[17.601,-1.477],[17.601,-1.135],[18.073,-0.993],[18.538,-0.986],[18.900,-1.200],[19.100,-1.700],[19.388,-2.100]]]}},
{"type":"Feature","properties":{"ADM1_FR":"Nord-Ubangi","ADM1_EN":"Nord-Ubangi"},"geometry":{"type":"Polygon","coordinates":[[[18.600,4.200],[18.980,3.290],[19.490,3.610],[20.060,3.850],[20.660,4.000],[21.280,4.050],[21.900,3.980],[22.500,3.800],[22.100,4.200],[21.680,4.520],[21.200,4.760],[20.680,4.920],[20.150,5.000],[19.620,5.000],[19.100,4.920],[18.600,4.760],[18.200,4.500],[18.600,4.200]]]}},
{"type":"Feature","properties":{"ADM1_FR":"Sud-Ubangi","ADM1_EN":"Sud-Ubangi"},"geometry":{"type":"Polygon","coordinates":[[[17.173,-1.477],[17.601,-1.135],[18.073,-0.993],[18.538,-0.986],[18.700,-0.900],[18.900,-1.200],[19.100,-1.700],[19.388,-2.100],[18.713,-3.040],[18.211,-3.521],[17.539,-3.290],[16.820,-3.280],[16.560,-3.558],[16.418,-3.038],[16.418,-2.500],[16.552,-1.900],[16.802,-1.477],[17.173,-1.477]]]}},
{"type":"Feature","properties":{"ADM1_FR":"Tshopo","ADM1_EN":"Tshopo"},"geometry":{"type":"Polygon","coordinates":[[[23.124,-2.671],[22.648,-2.571],[22.192,-2.740],[21.813,-3.008],[21.734,-2.447],[21.395,-2.069],[20.921,-1.771],[20.405,-1.638],[19.900,-1.810],[19.388,-2.100],[19.100,-1.700],[18.900,-1.200],[18.700,-0.900],[18.538,-0.986],[18.900,-0.500],[19.300,-0.100],[19.780,0.200],[20.300,0.400],[20.840,0.480],[21.370,0.450],[21.820,0.310],[22.160,0.080],[22.380,-0.380],[22.470,-0.860],[22.430,-1.350],[22.260,-1.800],[21.980,-2.180],[21.600,-2.460],[21.150,-2.640],[20.640,-2.690],[20.100,-2.640],[19.560,-2.470],[19.388,-2.100],[19.100,-1.700],[19.388,-2.100],[19.900,-1.810],[20.405,-1.638],[20.921,-1.771],[21.395,-2.069],[21.734,-2.447],[21.813,-3.008],[22.192,-2.740],[22.648,-2.571],[23.124,-2.671],[23.572,-2.936],[23.870,-3.372],[23.870,-2.800],[23.572,-2.300],[23.124,-1.900],[22.800,-1.500],[22.600,-1.000],[22.800,-0.600],[23.124,-2.671]]]}}
]}
